ORBCOMM FM37 [-]        
1 33064U 08031E   24022.03007611  .00002339  00000+0  36765-3 0  9992
2 33064  48.4397 250.5836 0005756 340.7495 179.1296 14.75762732838308
VESSELSAT 1 [-]         
1 37840U 11058C   24022.18004158  .00000476  00000+0  11575-3 0  9992
2 37840  19.9633 311.4251 0013663 315.8231  44.1082 14.11105863633892
ORBCOMM FM107 [+]       
1 40087U 14040B   24022.05135561  .00001156  00000+0  29623-3 0  9991
2 40087  47.0059 272.3268 0000878  75.5982 284.5000 14.56240182506446
ORBCOMM FM106 [-]       
1 40088U 14040C   24022.27066711  .00002497  00000+0  47780-3 0  9999
2 40088  47.0595 132.4410 0018812 214.6044 145.3622 14.66497618508264
ORBCOMM FM111 [-]       
1 40089U 14040D   24022.09413468  .00004237  00000+0  56354-3 0  9996
2 40089  47.0060  47.0665 0034580 271.0740  88.6193 14.80865752514190
ORBCOMM FM104 [-]       
1 40090U 14040E   24021.91323395  .00001260  00000+0  32938-3 0  9992
2 40090  47.0062 300.6968 0017144  24.4315 335.7379 14.54800108505987
